STARLINK-30489          
1 57974U 23151L   26068.08009000 -.00001451  00000+0 -44439-4 0  9993
2 57974  43.0031 339.3962 0002370 252.2381 107.8212 15.26719030135672
TRANSPORTER-12 OBJECT BA
1 62657U 25009BA  26068.70118713  .00011330  00000+0  42733-3 0  9991
2 62657  97.3985 151.1390 0000403 234.6623 125.4579 15.27214003 63739
